[
    {
        "Altitude(m)": 710567.5826374297,
        "Argument of Periapsis(deg)": 0.006834072711976239,
        "Eccentricity": 0.0,
        "Inclination(deg)": 45.0,
        "Latitude(deg)": -26.995608101810355,
        "Longitude(deg)": -110.00833798046187,
        "Mean Anomaly(deg)": 219.6472299884885,
        "RAAN(deg)": 139.99354883512507,
        "Satellite Name": "Constellation 1 629",
        "Satellite Number": 629,
        "Semi-Major Axis(m)": 7083131.272910544,
        "Time(s)": 114
    },
    {
        "Altitude(m)": 710581.4289991788,
        "Argument of Periapsis(deg)": 0.006894020718221645,
        "Eccentricity": 0.0,
        "Inclination(deg)": 45.0,
        "Latitude(deg)": -27.03272369578565,
        "Longitude(deg)": -109.95860706902724,
        "Mean Anomaly(deg)": 219.7079311287384,
        "RAAN(deg)": 139.99349224595952,
        "Satellite Name": "Constellation 1 629",
        "Satellite Number": 629,
        "Semi-Major Axis(m)": 7083131.272910544,
        "Time(s)": 115
    },
    {
        "Altitude(m)": 710595.2752121001,
        "Argument of Periapsis(deg)": 0.006953968724467052,
        "Eccentricity": 0.0,
        "Inclination(deg)": 45.0,
        "Latitude(deg)": -27.069818410260478,
        "Longitude(deg)": -109.90884089991485,
        "Mean Anomaly(deg)": 219.76863226898826,
        "RAAN(deg)": 139.9934356567939,
        "Satellite Name": "Constellation 1 629",
        "Satellite Number": 629,
        "Semi-Major Axis(m)": 7083131.272910544,
        "Time(s)": 116
    },
    {
        "Altitude(m)": 710609.1212284503,
        "Argument of Periapsis(deg)": 0.007013916730712457,
        "Eccentricity": 0.0,
        "Inclination(deg)": 45.0,
        "Latitude(deg)": -27.106892199084996,
        "Longitude(deg)": -109.85903941318605,
        "Mean Anomaly(deg)": 219.8293334092382,
        "RAAN(deg)": 139.99337906762835,
        "Satellite Name": "Constellation 1 629",
        "Satellite Number": 629,
        "Semi-Major Axis(m)": 7083131.272910544,
        "Time(s)": 117
    },
    {
        "Altitude(m)": 710622.9670004727,
        "Argument of Periapsis(deg)": 0.007073864736957864,
        "Eccentricity": 0.0,
        "Inclination(deg)": 45.0,
        "Latitude(deg)": -27.143945016042405,
        "Longitude(deg)": -109.80920254891673,
        "Mean Anomaly(deg)": 219.8900345494881,
        "RAAN(deg)": 139.9933224784628,
        "Satellite Name": "Constellation 1 629",
        "Satellite Number": 629,
        "Semi-Major Axis(m)": 7083131.272910544,
        "Time(s)": 118
    },
    {
        "Altitude(m)": 710636.8124803976,
        "Argument of Periapsis(deg)": 0.0071338127432032696,
        "Eccentricity": 0.0,
        "Inclination(deg)": 45.0,
        "Latitude(deg)": -27.18097681484896,
        "Longitude(deg)": -109.75933041529453,
        "Mean Anomaly(deg)": 219.95073568973802,
        "RAAN(deg)": 139.99326588929722,
        "Satellite Name": "Constellation 1 629",
        "Satellite Number": 629,
        "Semi-Major Axis(m)": 7083131.272910544,
        "Time(s)": 119
    },
    {
        "Altitude(m)": 710650.657620447,
        "Argument of Periapsis(deg)": 0.007193760749448674,
        "Eccentricity": 0.0,
        "Inclination(deg)": 45.0,
        "Latitude(deg)": -27.21798754915417,
        "Longitude(deg)": -109.70942261623077,
        "Mean Anomaly(deg)": -139.9885631700121,
        "RAAN(deg)": 139.99320930013167,
        "Satellite Name": "Constellation 1 629",
        "Satellite Number": 629,
        "Semi-Major Axis(m)": 7083131.272910544,
        "Time(s)": 120
    },
    {
        "Altitude(m)": 710664.5023728391,
        "Argument of Periapsis(deg)": 0.007253708755694079,
        "Eccentricity": 0.0,
        "Inclination(deg)": 45.0,
        "Latitude(deg)": -27.25497717253996,
        "Longitude(deg)": -109.65947925994412,
        "Mean Anomaly(deg)": -139.9278620297622,
        "RAAN(deg)": 139.9931527109661,
        "Satellite Name": "Constellation 1 629",
        "Satellite Number": 629,
        "Semi-Major Axis(m)": 7083131.272910544,
        "Time(s)": 121
    },
    {
        "Altitude(m)": 710678.3466897715,
        "Argument of Periapsis(deg)": 0.0073136567619394854,
        "Eccentricity": 0.0,
        "Inclination(deg)": 45.0,
        "Latitude(deg)": -27.291945638521177,
        "Longitude(deg)": -109.609500286572,
        "Mean Anomaly(deg)": -139.8671608895123,
        "RAAN(deg)": 139.9930961218005,
        "Satellite Name": "Constellation 1 629",
        "Satellite Number": 629,
        "Semi-Major Axis(m)": 7083131.272910544,
        "Time(s)": 122
    },
    {
        "Altitude(m)": 710692.190523436,
        "Argument of Periapsis(deg)": 0.0073736047681848904,
        "Eccentricity": 0.0,
        "Inclination(deg)": 45.0,
        "Latitude(deg)": -27.328892900545526,
        "Longitude(deg)": -109.55948563626822,
        "Mean Anomaly(deg)": -139.80645974926244,
        "RAAN(deg)": 139.99303953263495,
        "Satellite Name": "Constellation 1 629",
        "Satellite Number": 629,
        "Semi-Major Axis(m)": 7083131.272910544,
        "Time(s)": 123
    },
    {
        "Altitude(m)": 710706.0338260155,
        "Argument of Periapsis(deg)": 0.007433552774430298,
        "Eccentricity": 0.0,
        "Inclination(deg)": 45.0,
        "Latitude(deg)": -27.365818911993106,
        "Longitude(deg)": -109.50943524920368,
        "Mean Anomaly(deg)": -139.74575860901254,
        "RAAN(deg)": 139.99298294346937,
        "Satellite Name": "Constellation 1 629",
        "Satellite Number": 629,
        "Semi-Major Axis(m)": 7083131.272910544,
        "Time(s)": 124
    },
    {
        "Altitude(m)": 710719.8765496867,
        "Argument of Periapsis(deg)": 0.007493500780675703,
        "Eccentricity": 0.0,
        "Inclination(deg)": 45.0,
        "Latitude(deg)": -27.402723626176794,
        "Longitude(deg)": -109.45934906556651,
        "Mean Anomaly(deg)": -139.6850574687626,
        "RAAN(deg)": 139.9929263543038,
        "Satellite Name": "Constellation 1 629",
        "Satellite Number": 629,
        "Semi-Major Axis(m)": 7083131.272910544,
        "Time(s)": 125
    },
    {
        "Altitude(m)": 710733.718646605,
        "Argument of Periapsis(deg)": 0.007553448786921108,
        "Eccentricity": 0.0,
        "Inclination(deg)": 45.0,
        "Latitude(deg)": -27.439606996341574,
        "Longitude(deg)": -109.40922719366009,
        "Mean Anomaly(deg)": -139.62435632851273,
        "RAAN(deg)": 139.99286976513824,
        "Satellite Name": "Constellation 1 629",
        "Satellite Number": 629,
        "Semi-Major Axis(m)": 7083131.272910544,
        "Time(s)": 126
    },
    {
        "Altitude(m)": 710747.5600689336,
        "Argument of Periapsis(deg)": 0.007613396793166514,
        "Eccentricity": 0.0,
        "Inclination(deg)": 45.0,
        "Latitude(deg)": -27.47646897566538,
        "Longitude(deg)": -109.35906923751423,
        "Mean Anomaly(deg)": -139.56365518826277,
        "RAAN(deg)": 139.99281317597266,
        "Satellite Name": "Constellation 1 629",
        "Satellite Number": 629,
        "Semi-Major Axis(m)": 7083131.272910544,
        "Time(s)": 127
    },
    {
        "Altitude(m)": 710761.4007688137,
        "Argument of Periapsis(deg)": 0.007673344799411918,
        "Eccentricity": 0.0,
        "Inclination(deg)": 45.0,
        "Latitude(deg)": -27.51330951725789,
        "Longitude(deg)": -109.30887530546931,
        "Mean Anomaly(deg)": -139.5029540480129,
        "RAAN(deg)": 139.9927565868071,
        "Satellite Name": "Constellation 1 629",
        "Satellite Number": 629,
        "Semi-Major Axis(m)": 7083131.272910544,
        "Time(s)": 128
    },
    {
        "Altitude(m)": 710775.2406983847,
        "Argument of Periapsis(deg)": 0.007733292805657325,
        "Eccentricity": 0.0,
        "Inclination(deg)": 45.0,
        "Latitude(deg)": -27.550128574161356,
        "Longitude(deg)": -109.25864533778729,
        "Mean Anomaly(deg)": -139.442252907763,
        "RAAN(deg)": 139.99269999764155,
        "Satellite Name": "Constellation 1 629",
        "Satellite Number": 629,
        "Semi-Major Axis(m)": 7083131.272910544,
        "Time(s)": 129
    },
    {
        "Altitude(m)": 710789.0798097729,
        "Argument of Periapsis(deg)": 0.00779324081190273,
        "Eccentricity": 0.0,
        "Inclination(deg)": 45.0,
        "Latitude(deg)": -27.586926099350055,
        "Longitude(deg)": -109.20837927475002,
        "Mean Anomaly(deg)": -139.3815517675131,
        "RAAN(deg)": 139.99264340847594,
        "Satellite Name": "Constellation 1 629",
        "Satellite Number": 629,
        "Semi-Major Axis(m)": 7083131.272910544,
        "Time(s)": 130
    },
    {
        "Altitude(m)": 710802.9180551003,
        "Argument of Periapsis(deg)": 0.007853188818148135,
        "Eccentricity": 0.0,
        "Inclination(deg)": 45.0,
        "Latitude(deg)": -27.623702045730347,
        "Longitude(deg)": -109.15807705665948,
        "Mean Anomaly(deg)": -139.32085062726324,
        "RAAN(deg)": 139.9925868193104,
        "Satellite Name": "Constellation 1 629",
        "Satellite Number": 629,
        "Semi-Major Axis(m)": 7083131.272910544,
        "Time(s)": 131
    },
    {
        "Altitude(m)": 710816.7553864738,
        "Argument of Periapsis(deg)": 0.007913136824393542,
        "Eccentricity": 0.0,
        "Inclination(deg)": 45.0,
        "Latitude(deg)": -27.6604563661407,
        "Longitude(deg)": -109.10773862383789,
        "Mean Anomaly(deg)": -139.2601494870133,
        "RAAN(deg)": 139.9925302301448,
        "Satellite Name": "Constellation 1 629",
        "Satellite Number": 629,
        "Semi-Major Axis(m)": 7083131.272910544,
        "Time(s)": 132
    }
]